{
  "type": "FeatureCollection",
  "features": [
    {
      "type": "Feature",
      "properties": {
        "norad_id": 66330,
        "name": "STARLINK-35512",
        "group": "last-30-days",
        "lat": 29.00697197472073,
        "lon": 68.80992264759492,
        "alt_km": 440.20448957180633,
        "timestamp": "2025-12-04T15:47:52.867364+00:00",
        "meta_object_name": "STARLINK-35512",
        "meta_object_id": "2025-253M",
        "meta_epoch": "2025-12-04T08:00:01.999872",
        "meta_mean_motion": 15.40795555,
        "meta_eccentricity": 0.00010354,
        "meta_inclination": 43.0005,
        "meta_ra_of_asc_node": 34.1696,
        "meta_arg_of_pericenter": 256.0496,
        "meta_mean_anomaly": 145.1427,
        "meta_ephemeris_type": 0,
        "meta_classification_type": "U",
        "meta_norad_cat_id": 66330,
        "meta_element_set_no": 999,
        "meta_rev_at_epoch": 557,
        "meta_bstar": -0.0055469441,
        "meta_mean_motion_dot": -0.00225994,
        "meta_mean_motion_ddot": 0,
        "tle_line1": "1 66330U 25253M   25338.33335648 -.00225994  00000+0 -55469-2 0  9994",
        "tle_line2": "2 66330  43.0005  34.1696 0001035 256.0496 145.1427 15.40795555  5579"
      },
      "geometry": {
        "type": "Point",
        "coordinates": [
          68.80992264759492,
          29.00697197472073
        ]
      }
    },
    {
      "type": "Feature",
      "properties": {
        "norad_id": 66331,
        "name": "STARLINK-35257",
        "group": "last-30-days",
        "lat": -10.66136789137836,
        "lon": -136.41914256309667,
        "alt_km": 415.47536880302596,
        "timestamp": "2025-12-04T15:47:52.867374+00:00",
        "meta_object_name": "STARLINK-35257",
        "meta_object_id": "2025-253N",
        "meta_epoch": "2025-12-03T12:40:46.235424",
        "meta_mean_motion": 15.50612497,
        "meta_eccentricity": 0.00017622,
        "meta_inclination": 42.9995,
        "meta_ra_of_asc_node": 38.5379,
        "meta_arg_of_pericenter": 289.6299,
        "meta_mean_anomaly": 70.4371,
        "meta_ephemeris_type": 0,
        "meta_classification_type": "U",
        "meta_norad_cat_id": 66331,
        "meta_element_set_no": 999,
        "meta_rev_at_epoch": 550,
        "meta_bstar": 0.0018759457,
        "meta_mean_motion_dot": 0.00111424,
        "meta_mean_motion_ddot": 0,
        "tle_line1": "1 66331U 25253N   25337.52831291  .00111424  00000+0  18759-2 0  9991",
        "tle_line2": "2 66331  42.9995  38.5379 0001762 289.6299  70.4371 15.50612497  5507"
      },
      "geometry": {
        "type": "Point",
        "coordinates": [
          -136.41914256309667,
          -10.66136789137836
        ]
      }
    },
    {
      "type": "Feature",
      "properties": {
        "norad_id": 66332,
        "name": "STARLINK-35322",
        "group": "last-30-days",
        "lat": 26.367713963302737,
        "lon": 179.926124385552,
        "alt_km": 433.61891101294077,
        "timestamp": "2025-12-04T15:47:52.867388+00:00",
        "meta_object_name": "STARLINK-35322",
        "meta_object_id": "2025-253P",
        "meta_epoch": "2025-12-03T15:54:04.667328",
        "meta_mean_motion": 15.43882577,
        "meta_eccentricity": 0.00018143,
        "meta_inclination": 42.9998,
        "meta_ra_of_asc_node": 37.8272,
        "meta_arg_of_pericenter": 5.7146,
        "meta_mean_anomaly": 354.3732,
        "meta_ephemeris_type": 0,
        "meta_classification_type": "U",
        "meta_norad_cat_id": 66332,
        "meta_element_set_no": 999,
        "meta_rev_at_epoch": 552,
        "meta_bstar": -0.0089577621,
        "meta_mean_motion_dot": -0.00395993,
        "meta_mean_motion_ddot": 0,
        "tle_line1": "1 66332U 25253P   25337.66255402 -.00395993  00000+0 -89578-2 0  9995",
        "tle_line2": "2 66332  42.9998  37.8272 0001814   5.7146 354.3732 15.43882577  5528"
      },
      "geometry": {
        "type": "Point",
        "coordinates": [
          179.926124385552,
          26.367713963302737
        ]
      }
    },
    {
      "type": "Feature",
      "properties": {
        "norad_id": 66333,
        "name": "STARLINK-35400",
        "group": "last-30-days",
        "lat": -7.209156707280159,
        "lon": -140.25735418464257,
        "alt_km": 418.4911987271016,
        "timestamp": "2025-12-04T15:47:52.867399+00:00",
        "meta_object_name": "STARLINK-35400",
        "meta_object_id": "2025-253Q",
        "meta_epoch": "2025-12-04T07:14:36.085056",
        "meta_mean_motion": 15.49231228,
        "meta_eccentricity": 0.00013625,
        "meta_inclination": 42.9961,
        "meta_ra_of_asc_node": 34.0215,
        "meta_arg_of_pericenter": 160.6792,
        "meta_mean_anomaly": 199.4119,
        "meta_ephemeris_type": 0,
        "meta_classification_type": "U",
        "meta_norad_cat_id": 66333,
        "meta_element_set_no": 999,
        "meta_rev_at_epoch": 562,
        "meta_bstar": 0.0028005742,
        "meta_mean_motion_dot": 0.00159543,
        "meta_mean_motion_ddot": 0,
        "tle_line1": "1 66333U 25253Q   25338.30180654  .00159543  00000+0  28006-2 0  9990",
        "tle_line2": "2 66333  42.9961  34.0215 0001362 160.6792 199.4119 15.49231228  5626"
      },
      "geometry": {
        "type": "Point",
        "coordinates": [
          -140.25735418464257,
          -7.209156707280159
        ]
      }
    },
    {
      "type": "Feature",
      "properties": {
        "norad_id": 66334,
        "name": "STARLINK-35407",
        "group": "last-30-days",
        "lat": 42.5828998419157,
        "lon": 112.68367772404555,
        "alt_km": 437.0203232473741,
        "timestamp": "2025-12-04T15:47:52.867410+00:00",
        "meta_object_name": "STARLINK-35407",
        "meta_object_id": "2025-253R",
        "meta_epoch": "2025-12-04T04:32:58.300224",
        "meta_mean_motion": 15.407969,
        "meta_eccentricity": 6.108e-05,
        "meta_inclination": 42.9992,
        "meta_ra_of_asc_node": 34.9051,
        "meta_arg_of_pericenter": 285.6311,
        "meta_mean_anomaly": 74.4478,
        "meta_ephemeris_type": 0,
        "meta_classification_type": "U",
        "meta_norad_cat_id": 66334,
        "meta_element_set_no": 999,
        "meta_rev_at_epoch": 560,
        "meta_bstar": 0.0029411779,
        "meta_mean_motion_dot": 0.00124991,
        "meta_mean_motion_ddot": 0,
        "tle_line1": "1 66334U 25253R   25338.18956366  .00124991  00000+0  29412-2 0  9999",
        "tle_line2": "2 66334  42.9992  34.9051 0000610 285.6311  74.4478 15.40796900  5600"
      },
      "geometry": {
        "type": "Point",
        "coordinates": [
          112.68367772404555,
          42.5828998419157
        ]
      }
    },
    {
      "type": "Feature",
      "properties": {
        "norad_id": 66335,
        "name": "STARLINK-35417",
        "group": "last-30-days",
        "lat": 5.598889765394111,
        "lon": 38.422586532570904,
        "alt_km": 442.25333645056435,
        "timestamp": "2025-12-04T15:47:52.867422+00:00",
        "meta_object_name": "STARLINK-35417",
        "meta_object_id": "2025-253S",
        "meta_epoch": "2025-12-04T04:52:20.000064",
        "meta_mean_motion": 15.40794349,
        "meta_eccentricity": 7.35e-05,
        "meta_inclination": 42.9982,
        "meta_ra_of_asc_node": 35.0081,
        "meta_arg_of_pericenter": 58.7094,
        "meta_mean_anomaly": 301.3834,
        "meta_ephemeris_type": 0,
        "meta_classification_type": "U",
        "meta_norad_cat_id": 66335,
        "meta_element_set_no": 999,
        "meta_rev_at_epoch": 560,
        "meta_bstar": 0.002031508,
        "meta_mean_motion_dot": 0.00085785,
        "meta_mean_motion_ddot": 0,
        "tle_line1": "1 66335U 25253S   25338.20300926  .00085785  00000+0  20315-2 0  9998",
        "tle_line2": "2 66335  42.9982  35.0081 0000735  58.7094 301.3834 15.40794349  5603"
      },
      "geometry": {
        "type": "Point",
        "coordinates": [
          38.422586532570904,
          5.598889765394111
        ]
      }
    },
    {
      "type": "Feature",
      "properties": {
        "norad_id": 66336,
        "name": "STARLINK-35404",
        "group": "last-30-days",
        "lat": -11.978245314584727,
        "lon": -134.91883397634155,
        "alt_km": 415.22361744124555,
        "timestamp": "2025-12-04T15:47:52.867432+00:00",
        "meta_object_name": "STARLINK-35404",
        "meta_object_id": "2025-253T",
        "meta_epoch": "2025-12-03T12:40:16.785984",
        "meta_mean_motion": 15.50633101,
        "meta_eccentricity": 8.71e-05,
        "meta_inclination": 42.9975,
        "meta_ra_of_asc_node": 38.5345,
        "meta_arg_of_pericenter": 265.211,
        "meta_mean_anomaly": 94.865,
        "meta_ephemeris_type": 0,
        "meta_classification_type": "U",
        "meta_norad_cat_id": 66336,
        "meta_element_set_no": 999,
        "meta_rev_at_epoch": 550,
        "meta_bstar": 0.0017646328,
        "meta_mean_motion_dot": 0.00104778,
        "meta_mean_motion_ddot": 0,
        "tle_line1": "1 66336U 25253T   25337.52797206  .00104778  00000+0  17646-2 0  9991",
        "tle_line2": "2 66336  42.9975  38.5345 0000871 265.2110  94.8650 15.50633101  5500"
      },
      "geometry": {
        "type": "Point",
        "coordinates": [
          -134.91883397634155,
          -11.978245314584727
        ]
      }
    }
  ]
}